IRIDIUM 171             
1 43929U 19002H   25182.15591328  .00000040  00000+0  72135-5 0  9997
2 43929  86.3999 140.5929 0001985  82.3586 277.7835 14.34217797338646
IRIDIUM 170             
1 43930U 19002J   25182.38383031  .00000765  00000+0  11734-3 0  9994
2 43930  86.6113 140.2488 0002738  77.8943 282.2581 14.72250799347649
IRIDIUM 167             
1 43931U 19002K   25182.14957092  .00000046  00000+0  94847-5 0  9993
2 43931  86.3991 140.3477 0002082  74.6546 285.4880 14.34217801338648
IRIDIUM 181             
1 56726U 23068S   25181.53710719  .00000192  00000+0  50953-4 0  9992
2 56726  86.4519 203.6599 0001783  95.9210 264.2194 14.43311639111714
IRIDIUM 177             
1 56727U 23068T   25181.86182176  .00001627  00000+0  21063-3 0  9992
2 56727  86.1986 135.6400 0002378  82.5929 277.5563 14.80232490114397
IRIDIUM 174             
1 56728U 23068U   25181.89569622  .00000507  00000+0  76442-4 0  9999
2 56728  86.6122 140.5645 0003072  90.7890 269.3679 14.72258590114332
IRIDIUM 178             
1 56729U 23068V   25182.45933943  .00000433  00000+0  53481-4 0  9990
2 56729  86.6572 171.8782 0002707  90.4354 269.7178 14.80236083114483
IRIDIUM 179             
1 56730U 23068W   25182.52156346  .00000394  00000+0  48377-4 0  9998
2 56730  86.6804 179.7659 0002546  86.8239 273.3274 14.80231358114494
